API VERSION: 1.2
API SOURCE: NASA/JPL Horizons API

*******************************************************************************
 Revised: April 12, 2021                Venus                           299 / 2
 
 PHYSICAL DATA (updated 2020-Oct-19):
  Vol. Mean Radius (km) =  6051.84+-0.01 Density (g/cm^3)      =  5.204
  Mass x10^23 (kg)      =    48.685      Volume (x10^10 km^3)  = 92.843
  Sidereal rot. period  =   243.018484 d Sid. Rot. Rate (rad/s)= -0.00000029924
  Mean solar day        =   116.7490 d   Equ. gravity  m/s^2   =  8.870
  Mom. of Inertia       =     0.33       Core radius (km)      = ~3200
  Geometric Albedo      =     0.65       Potential Love # k2   = ~0.25
  GM (km^3/s^2)         = 324858.592     Equatorial Radius, Re = 6051.893 km
  GM 1-sigma (km^3/s^2) =    +-0.006     Mass ratio (Sun/Venus)= 408523.72
  Atmos. pressure (bar) =  90            Max. angular diam.    =   60.2"
  Mean Temperature (K)  = 735            Visual mag. V(1,0)    =   -4.40
  Obliquity to orbit    = 177.3 deg      Hill's sphere rad.,Rp =  167.1
  Sidereal orb. per., y =   0.61519726   Orbit speed, km/s     =   35.021
  Sidereal orb. per., d = 224.70079922   Escape speed, km/s    =   10.361
                                 Perihelion  Aphelion    Mean
  Solar Constant (W/m^2)         2759         2614       2650
  Maximum Planetary IR (W/m^2)    153         153         153
  Minimum Planetary IR (W/m^2)    153         153         153
*******************************************************************************


*******************************************************************************
Ephemeris / API_USER Thu Feb 19 13:09:19 2026 Pasadena, USA      / Horizons
*******************************************************************************
Target body name: Venus (299)                     {source: DE441}
Center body name: Earth (399)                     {source: DE441}
Center-site name: BODY CENTER
*******************************************************************************
Start time      : A.D. 2025-Jan-15 07:37:00.0000 TDB
Stop  time      : A.D. 2025-Jan-18 07:37:00.0000 TDB
Step-size       : 60 minutes
*******************************************************************************
Center geodetic : 0.0, 0.0, 0.0                   {E-lon(deg),Lat(deg),Alt(km)}
Center cylindric: 0.0, 0.0, 0.0                   {E-lon(deg),Dxy(km),Dz(km)}
Center radii    : 6378.137, 6378.137, 6356.752 km {Equator_a, b, pole_c}
Output units    : AU-D
Calendar mode   : Mixed Julian/Gregorian
Output type     : GEOMETRIC cartesian states
Output format   : 3 (position, velocity, LT, range, range-rate)
EOP file        : eop.260218.p260517
EOP coverage    : DATA-BASED 1962-JAN-20 TO 2026-FEB-18. PREDICTS-> 2026-MAY-16
Reference frame : Ecliptic of J2000.0
*******************************************************************************
JDTDB
   X     Y     Z
   VX    VY    VZ
   LT    RG    RR
*******************************************************************************
$$SOE
2460692.734027778 = A.D. 2025-Jan-17 05:37:00.0000 TDB 
 X = 6.061625190203670E-01 Y =-1.738526320992211E-01 Z = 5.000467822886515E-04
 VX=-4.187786609835971E-03 VY= 1.224705199933569E-02 VZ= 1.201054484307064E-03
 LT= 3.642049311367954E-03 RG= 6.306012901982744E-01 RR=-7.400969511465507E-03
2460692.775694444 = A.D. 2025-Jan-17 06:37:00.0000 TDB 
 X = 6.059877992665035E-01 Y =-1.733425849986208E-01 Z = 5.500903384134405E-04
 VX=-4.198758423568719E-03 VY= 1.223520712334047E-02 VZ= 1.201035942867674E-03
 LT= 3.640268323857074E-03 RG= 6.302929217699057E-01 RR=-7.400714759951058E-03
2460692.817361111 = A.D. 2025-Jan-17 07:37:00.0000 TDB 
 X = 6.058126227477854E-01 Y =-1.728330316476061E-01 Z = 6.001330886265284E-04
 VX=-4.209711321767789E-03 VY= 1.222335202358972E-02 VZ= 1.201015800543600E-03
 LT= 3.638487397860827E-03 RG= 6.299845639924656E-01 RR=-7.400458266971110E-03
2460692.859027778 = A.D. 2025-Jan-17 08:37:00.0000 TDB 
 X = 6.056369902524963E-01 Y =-1.723239724716222E-01 Z = 6.501749662243480E-04
 VX=-4.220645297874435E-03 VY= 1.221148672620384E-02 VZ= 1.200994057341363E-03
 LT= 3.636706533798244E-03 RG= 6.296762169385067E-01 RR=-7.400200032894603E-03
2460692.900694444 = A.D. 2025-Jan-17 09:37:00.0000 TDB 
 X = 6.054609025691935E-01 Y =-1.718154078950271E-01 Z = 7.002159045038551E-04
 VX=-4.231560345344335E-03 VY= 1.219961125727380E-02 VZ= 1.200970713265850E-03
 LT= 3.634925732088273E-03 RG= 6.293678806805681E-01 RR=-7.399940058057961E-03
2460692.942361111 = A.D. 2025-Jan-17 10:37:00.0000 TDB 
 X = 6.052843604867061E-01 Y =-1.713073383410921E-01 Z = 7.502558367621425E-04
 VX=-4.242456457647370E-03 VY= 1.218772564286174E-02 VZ= 1.200945768320362E-03
 LT= 3.633144993149784E-03 RG= 6.290595552911750E-01 RR=-7.399678342765157E-03
2460692.984027778 = A.D. 2025-Jan-17 11:37:00.0000 TDB 
 X = 6.051073647941351E-01 Y =-1.707997642320032E-01 Z = 8.002946962963279E-04
 VX=-4.253333628267328E-03 VY= 1.217582990900154E-02 VZ= 1.200919222506686E-03
 LT= 3.631364317401581E-03 RG= 6.287512408428402E-01 RR=-7.399414887287665E-03
2460693.025694444 = A.D. 2025-Jan-17 12:37:00.0000 TDB 
 X = 6.049299162808530E-01 Y =-1.702926859888621E-01 Z = 8.503324164034793E-04
 VX=-4.264191850701701E-03 VY= 1.216392408169938E-02 VZ= 1.200891075825136E-03
 LT= 3.629583705262401E-03 RG= 6.284429374080668E-01 RR=-7.399149691864505E-03
2460693.067361111 = A.D. 2025-Jan-17 13:37:00.0000 TDB 
 X = 6.047520157365027E-01 Y =-1.697861040316874E-01 Z = 9.003689303807890E-04
 VX=-4.275031118461455E-03 VY= 1.215200818693441E-02 VZ= 1.200861328274614E-03
 LT= 3.627803157150935E-03 RG= 6.281346450593480E-01 RR=-7.398882756702300E-03
2460693.109027778 = A.D. 2025-Jan-17 14:37:00.0000 TDB 
 X = 6.045736639509973E-01 Y =-1.692800187794162E-01 Z = 9.504041715253749E-04
 VX=-4.285851425070823E-03 VY= 1.214008225065927E-02 VZ= 1.200829979852675E-03
 LT= 3.626022673485818E-03 RG= 6.278263638691690E-01 RR=-7.398614081975305E-03
2460693.150694444 = A.D. 2025-Jan-17 15:37:00.0000 TDB 
 X = 6.043948617145193E-01 Y =-1.687744306499044E-01 Z = 1.000438073134205E-03
 VX=-4.296652764067104E-03 VY= 1.212814629880072E-02 VZ= 1.200797030555571E-03
 LT= 3.624242254685657E-03 RG= 6.275180939100087E-01 RR=-7.398343667825448E-03
2460693.192361111 = A.D. 2025-Jan-17 16:37:00.0000 TDB 
 X = 6.042156098175203E-01 Y =-1.682693400599284E-01 Z = 1.050470568503900E-03
 VX=-4.307435129000509E-03 VY= 1.211620035726016E-02 VZ= 1.200762480378315E-03
 LT= 3.622461901169021E-03 RG= 6.272098352543406E-01 RR=-7.398071514362426E-03
2460693.234027778 = A.D. 2025-Jan-17 17:37:00.0000 TDB 
 X = 6.040359090507207E-01 Y =-1.677647474251856E-01 Z = 1.100501590931078E-03
 VX=-4.318198513433956E-03 VY= 1.210424445191430E-02 VZ= 1.200726329314730E-03
 LT= 3.620681613354465E-03 RG= 6.269015879746346E-01 RR=-7.397797621663739E-03
2460693.275694444 = A.D. 2025-Jan-17 18:37:00.0000 TDB 
 X = 6.038557602051080E-01 Y =-1.672606531602960E-01 Z = 1.150531073712147E-03
 VX=-4.328942910942961E-03 VY= 1.209227860861563E-02 VZ= 1.200688577357514E-03
 LT= 3.618901391660516E-03 RG= 6.265933521433572E-01 RR=-7.397521989774816E-03
2460693.317361111 = A.D. 2025-Jan-17 19:37:00.0000 TDB 
 X = 6.036751640719384E-01 Y =-1.667570576788028E-01 Z = 1.200558950142844E-03
 VX=-4.339668315115467E-03 VY= 1.208030285319307E-02 VZ= 1.200649224498279E-03
 LT= 3.617121236505710E-03 RG= 6.262851278329753E-01 RR=-7.397244618709060E-03
2460693.359027778 = A.D. 2025-Jan-17 20:37:00.0000 TDB 
 X = 6.034941214427337E-01 Y =-1.662539613931733E-01 Z = 1.250585153518867E-03
 VX=-4.350374719551723E-03 VY= 1.206831721145252E-02 VZ= 1.200608270727622E-03
 LT= 3.615341148308570E-03 RG= 6.259769151159538E-01 RR=-7.396965508447979E-03
2460693.400694444 = A.D. 2025-Jan-17 21:37:00.0000 TDB 
 X = 6.033126331092830E-01 Y =-1.657513647148002E-01 Z = 1.300609617135117E-03
 VX=-4.361062117864211E-03 VY= 1.205632170917740E-02 VZ= 1.200565716035170E-03
 LT= 3.613561127487637E-03 RG= 6.256687140647607E-01 RR=-7.396684658941309E-03
2460693.442361111 = A.D. 2025-Jan-17 22:37:00.0000 TDB 
 X = 6.031306998636409E-01 Y =-1.652492680540026E-01 Z = 1.350632274286608E-03
 VX=-4.371730503677478E-03 VY= 1.204431637212924E-02 VZ= 1.200521560409633E-03
 LT= 3.611781174461460E-03 RG= 6.253605247518660E-01 RR=-7.396402070107084E-03
2460693.484027778 = A.D. 2025-Jan-17 23:37:00.0000 TDB 
 X = 6.029483224981274E-01 Y =-1.647476718200259E-01 Z = 1.400653058267232E-03
 VX=-4.382379870628122E-03 VY= 1.203230122604819E-02 VZ= 1.200475803838867E-03
 LT= 3.610001289648619E-03 RG= 6.250523472497439E-01 RR=-7.396117741831806E-03
2460693.525694444 = A.D. 2025-Jan-18 00:37:00.0000 TDB 
 X = 6.027655018053277E-01 Y =-1.642465764210445E-01 Z = 1.450671902370970E-03
 VX=-4.393010212364652E-03 VY= 1.202027629665363E-02 VZ= 1.200428446309914E-03
 LT= 3.608221473467717E-03 RG= 6.247441816308743E-01 RR=-7.395831673970550E-03
2460693.567361111 = A.D. 2025-Jan-18 01:37:00.0000 TDB 
 X = 6.025822385780909E-01 Y =-1.637459822641606E-01 Z = 1.500688739890668E-03
 VX=-4.403621522547484E-03 VY= 1.200824160964468E-02 VZ= 1.200379487809062E-03
 LT= 3.606441726337404E-03 RG= 6.244360279677431E-01 RR=-7.395543866347126E-03
2460693.609027778 = A.D. 2025-Jan-18 02:37:00.0000 TDB 
 X = 6.023985336095304E-01 Y =-1.632458897554066E-01 Z = 1.550703504119074E-03
 VX=-4.414213794848835E-03 VY= 1.199619719070073E-02 VZ= 1.200328928321896E-03
 LT= 3.604662048676371E-03 RG= 6.241278863328449E-01 RR=-7.395254318754205E-03
2460693.650694444 = A.D. 2025-Jan-18 03:37:00.0000 TDB 
 X = 6.022143876930228E-01 Y =-1.627462992997449E-01 Z = 1.600716128348052E-03
 VX=-4.424787022952727E-03 VY= 1.198414306548201E-02 VZ= 1.200276767833350E-03
 LT= 3.602882440903362E-03 RG= 6.238197567986831E-01 RR=-7.394963030953484E-03
